OBJECT_NAME,OBJECT_ID,EPOCH,MEAN_MOTION,ECCENTRICITY,INCLINATION,RA_OF_ASC_NODE,ARG_OF_PERICENTER,MEAN_ANOMALY,EPHEMERIS_TYPE,CLASSIFICATION_TYPE,NORAD_CAT_ID,ELEMENT_SET_NO,REV_AT_EPOCH,BSTAR,MEAN_MOTION_DOT,MEAN_MOTION_DDOT
STARLINK-30980,2023-186D,2026-06-10T23:54:30.338208,15.27579667,.00006081,42.9998,260.3323,268.5203,91.5579,0,U,58476,999,14012,.27339048E-4,.491E-5,0
STARLINK-30965,2023-186E,2026-06-09T12:41:13.725312,15.27588841,.00020025,42.9963,253.5326,119.3074,240.7978,0,U,58477,999,14007,.1382469E-3,.3545E-4,0
STARLINK-30990,2023-186F,2026-06-11T05:56:18.344256,15.27586328,.00018708,43.0141,258.7812,260.1544,99.9096,0,U,58478,999,14020,.46490965E-4,.1017E-4,0
STARLINK-30984,2023-186H,2026-06-10T22:50:26.423808,15.27578596,.00018023,42.9931,256.5876,290.2110,69.8547,0,U,58480,999,14016,.323297E-4,.628E-5,0
STARLINK-30956,2023-186J,2026-06-10T11:34:54.091200,15.27586058,.00011995,42.9980,237.2309,256.3139,103.7580,0,U,58481,999,14034,.33985918E-4,.673E-5,0
STARLINK-30997,2023-186K,2026-06-10T23:38:33.491904,15.27590447,.00016472,43.0030,256.8119,279.4344,80.6322,0,U,58482,999,14016,.92099883E-3,.25176E-3,0
STARLINK-30994,2023-186L,2026-06-10T12:49:50.323008,15.32041642,.0004704,42.9974,94.9483,161.5042,198.5983,0,U,58483,999,14201,.10226262E-2,.32178E-3,0
STARLINK-30991,2023-186M,2026-06-10T22:48:35.310816,15.27580477,.00021301,43.0008,256.5741,278.5950,81.4660,0,U,58484,999,14014,.40484322E-4,.852E-5,0
STARLINK-30979,2023-186N,2026-06-10T23:51:30.020544,15.27581591,.00016751,43.0047,256.9102,262.0193,98.0469,0,U,58485,999,14015,.5032592E-5,-.124E-5,0
STARLINK-31005,2023-186P,2026-06-10T23:42:15.209856,15.27579783,.00015288,43.0039,256.8614,252.5891,107.4794,0,U,58486,999,14015,.2341635E-4,.382E-5,0
STARLINK-30987,2023-186Q,2026-06-10T23:47:48.045120,15.27579481,.00012143,43.0030,256.8866,250.9127,109.1593,0,U,58487,999,14015,.10896296E-4,.38E-6,0
STARLINK-31000,2023-186R,2026-06-10T23:31:08.988960,15.27584970,.00011802,43.0022,256.8035,274.0614,86.0103,0,U,58488,999,14015,.29502716E-4,.55E-5,0
STARLINK-30993,2023-186S,2026-06-10T23:36:41.303232,15.27578394,.00038046,43.0192,256.8326,267.0630,92.9787,0,U,58489,999,14015,-.4555735E-5,-.389E-5,0
STARLINK-30978,2023-186T,2026-06-10T13:56:58.116480,15.27578246,.00010877,43.0004,258.9731,254.0673,106.0059,0,U,58490,999,14009,.35212323E-4,.707E-5,0
STARLINK-30953,2023-186U,2026-06-10T13:27:52.580736,15.27576615,.00006242,43.0001,103.0134,275.1876,84.8904,0,U,58491,999,14209,.15556551E-4,.166E-5,0
STARLINK-30986,2023-186V,2026-06-10T13:51:24.970176,15.27570073,.00009774,42.9974,258.9408,137.1351,222.9577,0,U,58492,999,14009,-.27525456E-4,-.1019E-4,0
STARLINK-30985,2023-186W,2026-06-10T23:05:14.676288,15.27589545,.00019412,43.0001,256.6660,282.1101,77.9533,0,U,58493,999,14015,-.10622696E-3,-.3185E-4,0
STARLINK-30981,2023-186X,2026-06-10T22:59:42.566784,15.27554185,.00010901,43.0025,256.6356,275.5772,84.4956,0,U,58494,999,14015,.65783273E-4,.1547E-4,0
STARLINK-31002,2023-186Y,2026-06-10T12:57:58.292064,15.27570722,.00022604,43.0105,259.5231,272.3882,87.6711,0,U,58495,999,14025,-.18372845E-4,-.768E-5,0
STARLINK-31026,2023-191A,2026-06-11T02:10:32.992896,15.27593790,.00013808,42.9998,302.9533,288.3882,71.6819,0,U,58508,999,13967,-.35187644E-4,-.1231E-4,0
STARLINK-31020,2023-191B,2026-06-11T01:53:53.819232,15.27577613,.00012297,43.0020,302.8694,269.2635,90.8076,0,U,58509,999,13967,.22217746E-3,.5856E-4,0
STARLINK-30989,2023-191C,2026-06-11T02:19:22.673280,15.27582134,.00002828,42.9945,296.1901,93.9592,266.1292,0,U,58510,999,13978,.48107969E-4,.1063E-4,0
STARLINK-30968,2023-191D,2026-06-11T02:24:54.095040,15.27579748,.00042439,43.0087,296.2247,281.9498,78.0878,0,U,58511,999,13975,.13678838E-4,.113E-5,0
STARLINK-30982,2023-191E,2026-06-10T15:31:22.389888,15.27589178,.00019268,43.0048,298.8277,272.3118,87.7513,0,U,58512,999,13968,.60782223E-4,.1411E-4,0
STARLINK-30998,2023-191F,2026-06-10T15:35:05.279424,15.27573247,.0001829,43.0038,298.8512,267.5549,92.5094,0,U,58513,999,13971,.20374398E-3,.5347E-4,0
STARLINK-30983,2023-191G,2026-06-10T19:36:51.468768,15.27571464,.00025727,43.0124,297.5273,293.8202,66.2380,0,U,58514,999,13936,.13593919E-4,.111E-5,0
STARLINK-31017,2023-191H,2026-06-11T00:37:11.469216,15.27582839,.00021779,42.9928,64.0479,276.5197,83.5406,0,U,58515,999,14245,-.12863161E-3,-.3801E-4,0
STARLINK-31028,2023-191J,2026-06-10T15:47:49.146144,15.27573857,.0001913,43.0094,298.0544,274.9429,85.1205,0,U,58516,999,13969,-.987425E-6,-.29E-5,0
STARLINK-31011,2023-191K,2026-06-10T15:42:15.793344,15.27590161,.00015839,43.0023,298.0313,277.0159,83.0513,0,U,58517,999,13969,.89864161E-4,.2212E-4,0
STARLINK-31021,2023-191L,2026-06-11T02:13:49.499328,15.27580836,.00005079,42.9931,296.1370,275.8359,84.2435,0,U,58518,999,13975,.51420502E-4,.1154E-4,0
STARLINK-31010,2023-191M,2026-06-11T02:08:14.847936,15.27579173,.00030118,43.0250,296.0722,271.6810,88.3697,0,U,58519,999,13975,.12102892E-4,.7E-6,0
STARLINK-31003,2023-191N,2026-06-10T15:40:25.329216,15.27580253,.00014044,43.0014,298.0189,265.8942,94.1749,0,U,58520,999,13969,.89710361E-4,.2207E-4,0
STARLINK-31015,2023-191P,2026-06-10T16:00:03.000096,15.27570227,.00015387,43.0023,298.0005,273.3122,140.5703,0,U,58521,999,587,.11185096E-3,.2816E-4,0
STARLINK-30932,2023-191R,2026-06-11T06:04:28.318656,15.27584087,.00019578,43.0204,294.7708,295.8687,64.1963,0,U,58523,999,13973,-.33405562E-4,-.1182E-4,0
STARLINK-30992,2023-191S,2026-06-11T01:27:33.494976,15.27579876,.00012721,42.9962,295.9186,274.3218,85.7489,0,U,58524,999,13975,.14506656E-4,.137E-5,0
STARLINK-30948,2023-191T,2026-06-11T01:31:15.453120,15.27583981,.00014718,43.0061,295.9370,268.4903,91.5780,0,U,58525,999,13975,.4264968E-4,.912E-5,0
STARLINK-31013,2023-191U,2026-06-11T02:46:58.165536,15.09551588,.00085198,43.0002,313.3607,292.3165,67.6776,0,U,58526,999,13955,.11510574E-2,.18638E-3,0
STARLINK-31001,2023-191V,2026-06-10T16:34:03.898560,15.27575856,.00001472,43.0047,298.2004,353.3603,6.7247,0,U,58527,999,13969,.10220417E-3,.2551E-4,0
STARLINK-31004,2023-191W,2026-06-11T01:36:49.189536,15.27566637,.00010239,43.0004,295.9629,280.9633,79.1103,0,U,58528,999,13975,-.10073706E-3,-.3032E-4,0
STARLINK-30988,2023-191X,2026-06-10T16:17:26.319840,15.27564688,.00005651,43.0049,298.2036,279.6431,80.4357,0,U,58529,999,13969,-.59586199E-4,-.19E-4,0
STARLINK-31009,2023-191Y,2026-06-10T19:31:17.598432,15.27583603,.00005402,43.0028,297.4928,293.7367,66.3428,0,U,58530,999,13973,-.33009772E-4,-.117E-4,0
STARLINK-31012,2023-192A,2026-06-10T19:21:53.830656,15.30203177,.00006575,53.1624,350.1109,76.5310,283.5764,0,U,58531,999,14024,.8272802E-5,-.114E-5,0
STARLINK-31035,2023-192B,2026-06-11T05:08:43.364256,15.34379269,.00014678,53.1610,334.8723,80.2488,279.8681,0,U,58532,999,14049,.88420768E-4,.261E-4,0
STARLINK-31036,2023-192C,2026-06-11T05:36:06.784704,15.34387397,.00013206,53.1606,347.1162,97.3228,262.7924,0,U,58533,999,14032,-.20395736E-4,-.1065E-4,0
STARLINK-30936,2023-192D,2026-06-10T18:45:24.770016,15.31709604,.00011628,53.1609,340.0403,94.4874,265.6260,0,U,58534,999,14038,.41672127E-4,.929E-5,0
STARLINK-31032,2023-192E,2026-06-10T19:30:54.841536,15.34393714,.00012921,53.1620,348.7293,90.5187,269.5964,0,U,58535,999,14026,-.10241314E-4,-.722E-5,0
STARLINK-31037,2023-192F,2026-06-10T19:09:49.690656,15.34393525,.00010911,53.1619,349.3696,85.0610,275.0518,0,U,58536,999,14025,.4489658E-5,-.224E-5,0
STARLINK-31041,2023-192G,2026-06-10T22:26:30.251040,15.34395232,.00014196,53.1619,348.7841,123.1982,236.9157,0,U,58537,999,14027,.27099971E-4,.539E-5,0
STARLINK-31014,2023-192H,2026-06-11T05:39:09.181152,15.34368205,.00011869,53.1607,347.0999,87.9678,272.1461,0,U,58538,999,14032,-.75974206E-4,-.2939E-4,0
STARLINK-31055,2023-192J,2026-06-10T23:05:46.522464,15.34390523,.00012978,53.1611,348.2387,94.3566,265.7585,0,U,58539,999,14028,.20226048E-4,.307E-5,0
STARLINK-31019,2023-192K,2026-06-11T05:57:18.221184,15.34396314,.0001149,53.1615,347.1799,82.2611,277.8522,0,U,58540,999,14032,.3973148E-5,-.242E-5,0
STARLINK-31045,2023-192L,2026-06-11T00:34:40.359072,15.30207047,.00010286,53.1603,66.0536,98.9358,261.1760,0,U,58541,999,13918,-.29497767E-4,-.1233E-4,0
STARLINK-31030,2023-192M,2026-06-11T05:23:59.469504,15.34389924,.00013606,53.1619,347.0353,93.9409,266.1749,0,U,58542,999,14032,-.7825874E-5,-.641E-5,0
STARLINK-31049,2023-192N,2026-06-10T18:30:27.009216,15.34387407,.00015996,53.1634,349.1746,105.7976,254.3203,0,U,58543,999,14025,-.3516183E-5,-.495E-5,0
STARLINK-31048,2023-192P,2026-06-11T06:02:01.510368,15.30197540,.00011794,53.1623,347.8622,87.3914,272.7222,0,U,58544,999,14031,.3805034E-5,-.246E-5,0
STARLINK-31057,2023-192Q,2026-06-10T20:10:17.913504,15.34382984,.00012457,53.1613,348.8972,104.2513,255.8628,0,U,58545,999,14026,.32064729E-4,.707E-5,0
STARLINK-31050,2023-192R,2026-06-11T06:00:20.671200,15.34390037,.00013149,53.1620,347.1895,84.4892,275.6261,0,U,58546,999,14032,-.5228269E-4,-.2142E-4,0
STARLINK-31063,2023-192S,2026-06-11T06:00:02.000160,15.30187068,.0001048,53.1591,337.8212,99.8430,310.2959,0,U,58547,999,587,.40044756E-3,.11515E-3,0
STARLINK-31016,2023-192T,2026-06-10T19:08:12.825024,15.30198173,.0001297,53.1613,350.0037,86.6503,273.4646,0,U,58548,999,14024,.29603224E-4,.518E-5,0
STARLINK-31053,2023-192U,2026-06-10T18:45:34.918560,15.34412798,.00015298,53.1618,349.2438,96.8192,263.2985,0,U,58549,999,14025,.74547921E-4,.2144E-4,0
STARLINK-31056,2023-192V,2026-06-10T19:12:48.051360,15.30202107,.00013596,53.1620,350.0673,91.1532,268.9625,0,U,58550,999,14024,-.197661E-4,-.945E-5,0
STARLINK-30999,2023-192W,2026-06-11T05:13:40.226016,15.30200657,.00009728,53.1632,338.3450,80.6046,279.5065,0,U,58551,999,14044,-.10659511E-4,-.675E-5,0
STARLINK-31046,2023-192X,2026-06-10T19:06:47.785824,15.34395432,.00011826,53.1623,349.3366,86.1515,273.9623,0,U,58552,999,14025,-.15082025E-4,-.886E-5,0
